{
  "type": "FeatureCollection",
  "features": [
    {
      "type": "Feature",
      "properties": {},
      "geometry": {
        "type": "Polygon",
        "coordinates": [
          [
            [
              53.9641337,
              36.6461016
            ],
            [
              50.7733052,
              36.2235616
            ],
            [
              47.5735296,
              37.5587054
            ],
            [
              47.2163974,
              37.2351424
            ],
            [
              48.2300551,
              34.6414238
            ],
            [
              51.2934512,
              32.82553
            ],
            [
              56.5295343,
              31.7149547
            ],
            [
              58.890684,
              29.6234796
            ],
            [
              64.0539887,
              27.5089826
            ],
            [
              64.8559275,
              26.382612
            ],
            [
              65.1631417,
              25.3817109
            ],
            [
              66.3970233,
              25.4642536
            ],
            [
              66.7135261,
              24.9917283
            ],
            [
              67.3937206,
              24.8598715
            ],
            [
              67.5763286,
              24.2238495
            ],
            [
              68.4099727,
              24.2119161
            ],
            [
              69.2873319,
              24.2624032
            ],
            [
              69.1021654,
              23.7040449
            ],
            [
              68.6417742,
              23.7094813
            ],
            [
              68.551852,
              23.4902073
            ],
            [
              68.7236218,
              23.208016
            ],
            [
              69.5050022,
              22.8155512
            ],
            [
              70.5447182,
              23.1753357
            ],
            [
              70.2458528,
              22.5789633
            ],
            [
              69.0617216,
              22.2602371
            ],
            [
              70.5451119,
              20.7682746
            ],
            [
              71.4682905,
              20.9193329
            ],
            [
              72.1879706,
              21.4408102
            ],
            [
              72.2593634,
              22.434372
            ],
            [
              70.7515396,
              26.2317097
            ],
            [
              72.292276,
              29.0788366
            ],
            [
              75.5153297,
              33.7502417
            ],
            [
              77.0558827,
              35.7471859
            ],
            [
              75.9496726,
              38.4187136
            ],
            [
              72.6972496,
              39.8510732
            ],
            [
              66.8488668,
              39.6823509
            ],
            [
              64.262741,
              38.8417151
            ],
            [
              63.1680868,
              41.1839124
            ],
            [
              61.3306494,
              41.7334951
            ],
            [
              61.3992291,
              39.5780094
            ],
            [
              59.9718464,
              40.2069399
            ],
            [
              58.7834733,
              42.3878837
            ],
            [
              58.0356355,
              43.7892282
            ],
            [
              57.9666586,
              44.578143
            ],
            [
              56.6779563,
              45.5642086
            ],
            [
              55.445649,
              41.9595977
            ],
            [
              56.4865472,
              39.2594941
            ],
            [
              55.6274204,
              37.6802118
            ],
            [
              55.5082057,
              37.7077602
            ],
            [
              55.5729984,
              37.6621789
            ],
            [
              54.9966164,
              37.2949024
            ],
            [
              53.9641337,
              36.6461016
            ]
          ]
        ]
      }
    }
  ]
}