{
  "type": "FeatureCollection",
  "features": [
    {
      "type": "Feature",
      "properties": {},
      "geometry": {
        "type": "Polygon",
        "coordinates": [
          [
            [
              47.418917,
              43.1061593
            ],
            [
              47.216885,
              42.9416704
            ],
            [
              47.2006216,
              42.7225663
            ],
            [
              47.4840251,
              42.310023
            ],
            [
              48.5048753,
              40.6059561
            ],
            [
              48.17721,
              40.4631952
            ],
            [
              47.8138556,
              40.6087784
            ],
            [
              44.834798,
              42.4769946
            ],
            [
              44.0017105,
              42.2588265
            ],
            [
              44.1789681,
              41.7122755
            ],
            [
              43.6662489,
              41.4050153
            ],
            [
              42.9433663,
              41.3263041
            ],
            [
              42.6798789,
              41.0246309
            ],
            [
              44.1404478,
              37.0396282
            ],
            [
              43.7773256,
              36.3330472
            ],
            [
              46.0564357,
              32.9698181
            ],
            [
              47.2648244,
              32.4329119
            ],
            [
              47.6982117,
              31.963588
            ],
            [
              47.669161,
              31.4142969
            ],
            [
              47.6685185,
              31.020487
            ],
            [
              48.5608521,
              29.9570076
            ],
            [
              48.9161581,
              30.0054344
            ],
            [
              48.8161533,
              30.4533682
            ],
            [
              49.2049978,
              30.1810547
            ],
            [
              49.4386472,
              30.0680103
            ],
            [
              50.0792826,
              30.2296995
            ],
            [
              50.4450447,
              29.6173734
            ],
            [
              51.2527335,
              28.2289684
            ],
            [
              51.6366775,
              27.8864267
            ],
            [
              52.2219265,
              27.8421915
            ],
            [
              52.8533468,
              27.3126759
            ],
            [
              53.7239526,
              26.7999551
            ],
            [
              54.8066475,
              26.5926992
            ],
            [
              56.1343035,
              27.1277404
            ],
            [
              56.6124534,
              27.2443402
            ],
            [
              56.9583154,
              26.941417
            ],
            [
              57.0880256,
              26.5248549
            ],
            [
              57.2963804,
              25.9079229
            ],
            [
              61.5295213,
              25.0667966
            ],
            [
              61.9639992,
              25.8938114
            ],
            [
              62.5472995,
              26.4954495
            ],
            [
              63.3707739,
              26.5297708
            ],
            [
              63.5791149,
              27.112434
            ],
            [
              62.7937842,
              27.3014469
            ],
            [
              62.8060729,
              28.2829062
            ],
            [
              61.8823525,
              28.6200493
            ],
            [
              60.8658416,
              29.7769791
            ],
            [
              62.6654539,
              31.3504973
            ],
            [
              63.9337113,
              31.6567848
            ],
            [
              64.5734939,
              32.4346188
            ],
            [
              64.7617074,
              33.9678911
            ],
            [
              64.3181841,
              36.2936273
            ],
            [
              62.5002524,
              38.706378
            ],
            [
              61.4789055,
              38.9063382
            ],
            [
              60.6487509,
              38.0352136
            ],
            [
              58.347629,
              38.0216716
            ],
            [
              57.6288021,
              37.8330944
            ],
            [
              56.380542,
              38.3620116
            ],
            [
              55.1896995,
              38.1037341
            ],
            [
              54.7212159,
              37.6336644
            ],
            [
              54.0253084,
              37.3421961
            ],
            [
              54.0369977,
              36.7830557
            ],
            [
              53.305112,
              36.8385883
            ],
            [
              51.8060785,
              36.4947424
            ],
            [
              50.3731707,
              36.9163648
            ],
            [
              50.1722717,
              37.3172465
            ],
            [
              49.2369207,
              37.4108895
            ],
            [
              48.9878147,
              37.7088033
            ],
            [
              48.665385,
              39.1282021
            ],
            [
              49.1231015,
              39.2485228
            ],
            [
              49.3338887,
              39.8553389
            ],
            [
              49.5957382,
              40.3294904
            ],
            [
              50.2011368,
              40.3697402
            ],
            [
              50.0735633,
              40.5620892
            ],
            [
              49.5575297,
              40.6049328
            ],
            [
              48.3318699,
              42.0704202
            ],
            [
              47.8268148,
              42.7057327
            ],
            [
              47.418917,
              43.1061593
            ]
          ]
        ]
      }
    }
  ]
}