{
  "type": "FeatureCollection",
  "features": [
    {
      "type": "Feature",
      "properties": {},
      "geometry": {
        "type": "Polygon",
        "coordinates": [
          [
            [
              30.3714432,
              41.2717616
            ],
            [
              30.8001625,
              40.6480403
            ],
            [
              29.9315329,
              38.7028523
            ],
            [
              29.1285729,
              37.538926
            ],
            [
              29.0060396,
              36.7722121
            ],
            [
              29.1738184,
              36.3336817
            ],
            [
              29.6888808,
              36.1730678
            ],
            [
              30.5303971,
              36.4130893
            ],
            [
              31.3633616,
              36.6660805
            ],
            [
              32.4586756,
              36.1577466
            ],
            [
              32.8341355,
              36.0419979
            ],
            [
              34.1822332,
              36.2396878
            ],
            [
              34.8920116,
              36.7861802
            ],
            [
              35.7197515,
              36.5358395
            ],
            [
              35.9930893,
              36.0228377
            ],
            [
              35.752604,
              35.5865251
            ],
            [
              35.9970213,
              35.3207888
            ],
            [
              35.6187211,
              34.2582717
            ],
            [
              37.6983218,
              34.9035349
            ],
            [
              39.6663336,
              34.1951063
            ],
            [
              42.7418539,
              31.6050201
            ],
            [
              47.9324971,
              30.5462076
            ],
            [
              48.4813378,
              30.0929045
            ],
            [
              48.8904541,
              30.0237573
            ],
            [
              48.9446436,
              30.4862066
            ],
            [
              49.6465735,
              30.0896996
            ],
            [
              51.3853689,
              28.1159276
            ],
            [
              52.9554822,
              27.2328777
            ],
            [
              54.2049608,
              26.7119304
            ],
            [
              55.0009273,
              26.6246427
            ],
            [
              56.1038886,
              27.1472605
            ],
            [
              56.820446,
              27.0457756
            ],
            [
              57.088615,
              26.4117995
            ],
            [
              57.2259667,
              25.8804458
            ],
            [
              61.3938915,
              25.1523221
            ],
            [
              66.1807734,
              25.5417422
            ],
            [
              67.5812565,
              29.4977591
            ],
            [
              69.693236,
              30.4997294
            ],
            [
              71.4556632,
              30.8240232
            ],
            [
              72.0163296,
              32.6195425
            ],
            [
              71.998704,
              33.6994726
            ],
            [
              71.0694992,
              34.2308536
            ],
            [
              70.3210157,
              36.2766741
            ],
            [
              72.0138646,
              37.1858716
            ],
            [
              74.0773079,
              38.9747945
            ],
            [
              72.9587402,
              39.6606534
            ],
            [
              70.1319902,
              39.2377348
            ],
            [
              66.1369014,
              39.9168742
            ],
            [
              62.7925038,
              42.6882668
            ],
            [
              60.1357392,
              43.7462691
            ],
            [
              59.0731042,
              42.4689336
            ],
            [
              59.5586713,
              40.6238236
            ],
            [
              58.5434303,
              39.9048048
            ],
            [
              56.2692583,
              38.9028032
            ],
            [
              54.682767,
              38.6962731
            ],
            [
              54.0938406,
              36.977836
            ],
            [
              53.8069123,
              36.7898836
            ],
            [
              53.420253,
              36.8497883
            ],
            [
              51.9927721,
              36.5115835
            ],
            [
              50.6144821,
              36.7708622
            ],
            [
              49.8571856,
              36.9882905
            ],
            [
              48.7382178,
              37.4648153
            ],
            [
              48.3044391,
              38.4646541
            ],
            [
              48.8353204,
              39.1682446
            ],
            [
              49.3883526,
              39.3427598
            ],
            [
              49.7731647,
              40.5180856
            ],
            [
              48.9704204,
              41.51112
            ],
            [
              48.3902892,
              41.8681144
            ],
            [
              47.2868418,
              43.3283149
            ],
            [
              45.9911206,
              42.3199995
            ],
            [
              43.2687609,
              41.6396806
            ],
            [
              41.4608444,
              41.5272053
            ],
            [
              40.2506432,
              40.8988502
            ],
            [
              39.0532006,
              41.1111753
            ],
            [
              38.209821,
              41.0480438
            ],
            [
              36.8042058,
              41.0906002
            ],
            [
              36.1334638,
              41.5798855
            ],
            [
              35.0207904,
              41.7559818
            ],
            [
              34.8081943,
              42.0429524
            ],
            [
              33.2041048,
              41.8940825
            ],
            [
              32.0605291,
              41.5776569
            ],
            [
              30.9946714,
              41.0283426
            ],
            [
              30.3714432,
              41.2717616
            ]
          ]
        ]
      }
    }
  ]
}