{
  "type": "FeatureCollection",
  "features": [
    {
      "type": "Feature",
      "properties": {},
      "geometry": {
        "type": "Polygon",
        "coordinates": [
          [
            [
              48.3083222,
              29.8486768
            ],
            [
              46.85134,
              30.1904509
            ],
            [
              46.3446719,
              30.6023985
            ],
            [
              45.3399325,
              30.940537
            ],
            [
              44.4017798,
              32.147009
            ],
            [
              42.9916654,
              33.5070626
            ],
            [
              43.3551101,
              34.3154771
            ],
            [
              42.4266359,
              35.2030644
            ],
            [
              40.499929,
              36.8645744
            ],
            [
              37.5301734,
              37.4424335
            ],
            [
              39.4347173,
              39.0079228
            ],
            [
              40.1703027,
              39.9633729
            ],
            [
              39.847276,
              41.0171612
            ],
            [
              40.9702899,
              41.2067442
            ],
            [
              41.5733218,
              41.5662968
            ],
            [
              41.7437175,
              41.9414392
            ],
            [
              41.4725423,
              42.7921564
            ],
            [
              41.1083412,
              42.846869
            ],
            [
              40.9730179,
              43.0017057
            ],
            [
              41.2171347,
              43.1722277
            ],
            [
              41.9361197,
              42.9914854
            ],
            [
              42.8277069,
              41.8396484
            ],
            [
              44.7845492,
              41.9772282
            ],
            [
              47.0792771,
              43.6562371
            ],
            [
              47.542988,
              43.5126023
            ],
            [
              47.5650421,
              42.745583
            ],
            [
              49.0238746,
              41.4772511
            ],
            [
              49.4259472,
              40.7159359
            ],
            [
              49.9828481,
              40.5703359
            ],
            [
              49.9426516,
              40.2572074
            ],
            [
              49.3678476,
              40.2365394
            ],
            [
              49.3189846,
              39.2965258
            ],
            [
              48.8693991,
              39.1753887
            ],
            [
              48.9330514,
              37.6858524
            ],
            [
              49.4561108,
              37.4177023
            ],
            [
              50.2041622,
              37.367052
            ],
            [
              50.6485883,
              36.8999474
            ],
            [
              52.0655357,
              36.4862449
            ],
            [
              53.0000233,
              36.7477865
            ],
            [
              54.0221003,
              36.7686385
            ],
            [
              53.7471672,
              39.08288
            ],
            [
              52.8183262,
              40.0909196
            ],
            [
              53.0187958,
              40.9470994
            ],
            [
              54.4829666,
              40.6158663
            ],
            [
              57.900008,
              42.4945445
            ],
            [
              61.2111512,
              41.7582488
            ],
            [
              63.7203327,
              40.4705371
            ],
            [
              66.8527264,
              39.5811781
            ],
            [
              70.1682861,
              40.4118203
            ],
            [
              73.4395427,
              39.8170212
            ],
            [
              77.3475201,
              38.3829695
            ],
            [
              77.914664,
              37.4762288
            ],
            [
              74.0413372,
              36.0538451
            ],
            [
              78.5063904,
              34.6963927
            ],
            [
              79.794129,
              33.4142297
            ],
            [
              78.650348,
              31.1113669
            ],
            [
              73.406575,
              30.7252877
            ],
            [
              70.1672243,
              29.2715027
            ],
            [
              67.4761157,
              25.744192
            ],
            [
              61.3666949,
              25.13492
            ],
            [
              58.2851861,
              25.5870866
            ],
            [
              57.3721667,
              25.686008
            ],
            [
              57.2049154,
              26.2357349
            ],
            [
              57.0336576,
              26.9085363
            ],
            [
              56.5794442,
              27.1140985
            ],
            [
              54.7395064,
              26.5472509
            ],
            [
              53.4289206,
              26.8818624
            ],
            [
              52.572548,
              27.5840294
            ],
            [
              51.6652089,
              27.812544
            ],
            [
              51.2659175,
              28.0663616
            ],
            [
              50.0024496,
              30.2276213
            ],
            [
              48.3083222,
              29.8486768
            ]
          ]
        ]
      }
    }
  ]
}