{
  "type": "FeatureCollection",
  "features": [
    {
      "type": "Feature",
      "properties": {},
      "geometry": {
        "type": "Polygon",
        "coordinates": [
          [
            [
              32.0145149,
              36.4697079
            ],
            [
              32.356829,
              37.669105
            ],
            [
              31.5715308,
              38.5036819
            ],
            [
              31.5148596,
              39.6852568
            ],
            [
              32.1278704,
              40.3384116
            ],
            [
              32.3717261,
              41.8186818
            ],
            [
              33.3914291,
              42.0296508
            ],
            [
              34.7417201,
              41.946812
            ],
            [
              35.4040066,
              41.7478559
            ],
            [
              36.1285728,
              41.4109647
            ],
            [
              38.1361636,
              40.9257971
            ],
            [
              40.0649956,
              40.9659072
            ],
            [
              41.7526807,
              41.7591261
            ],
            [
              48.4030579,
              41.9084488
            ],
            [
              48.9763635,
              41.3815933
            ],
            [
              49.423506,
              40.7727552
            ],
            [
              49.5619974,
              40.2941828
            ],
            [
              49.2453373,
              39.4492568
            ],
            [
              48.78046,
              38.8139608
            ],
            [
              49.0158215,
              37.6721887
            ],
            [
              50.1541178,
              37.3686448
            ],
            [
              50.7858654,
              36.8448266
            ],
            [
              51.9311427,
              36.6096222
            ],
            [
              53.9667081,
              36.8092663
            ],
            [
              53.8476418,
              38.219383
            ],
            [
              53.1487809,
              39.419652
            ],
            [
              53.8828681,
              39.4755735
            ],
            [
              52.7512224,
              40.1259154
            ],
            [
              53.6224107,
              40.7591656
            ],
            [
              54.7380638,
              40.76012
            ],
            [
              55.8846606,
              42.8372689
            ],
            [
              58.2418126,
              44.3344149
            ],
            [
              59.2551758,
              44.5108683
            ],
            [
              60.1926525,
              43.1179889
            ],
            [
              61.3739577,
              42.1242989
            ],
            [
              66.3933772,
              43.7759981
            ],
            [
              72.056598,
              44.4836889
            ],
            [
              74.8767266,
              42.652993
            ],
            [
              75.3280379,
              40.1626926
            ],
            [
              73.9093635,
              38.6640536
            ],
            [
              72.0586039,
              36.8091238
            ],
            [
              67.4423954,
              34.5212306
            ],
            [
              64.1916198,
              33.5695896
            ],
            [
              63.0353481,
              32.0349669
            ],
            [
              62.9702943,
              30.0722651
            ],
            [
              61.6485727,
              27.4400378
            ],
            [
              59.5580712,
              25.4805599
            ],
            [
              57.2916856,
              25.8039259
            ],
            [
              56.4274089,
              27.2707342
            ],
            [
              55.5801964,
              27.0611232
            ],
            [
              54.4809723,
              26.7348358
            ],
            [
              53.2961079,
              27.0294398
            ],
            [
              51.6806874,
              27.9093194
            ],
            [
              50.1489837,
              30.3227612
            ],
            [
              48.7437774,
              30.2630447
            ],
            [
              47.7678215,
              29.3592012
            ],
            [
              50.0934807,
              26.3315859
            ],
            [
              50.7423421,
              24.4810741
            ],
            [
              51.4853005,
              25.7815041
            ],
            [
              51.5032794,
              25.2253929
            ],
            [
              51.3808977,
              24.1445437
            ],
            [
              52.4828969,
              24.1710434
            ],
            [
              54.2880129,
              24.215885
            ],
            [
              56.1201725,
              26.2541211
            ],
            [
              55.6695101,
              24.563039
            ],
            [
              54.4209687,
              23.386595
            ],
            [
              51.3277995,
              23.0199009
            ],
            [
              49.6281149,
              24.2839797
            ],
            [
              46.286613,
              28.307627
            ],
            [
              41.3463488,
              29.3380489
            ],
            [
              39.3333241,
              31.1150548
            ],
            [
              37.1581423,
              32.3453297
            ],
            [
              34.3817336,
              31.4273176
            ],
            [
              36.2096165,
              34.6001092
            ],
            [
              35.9552152,
              36.1738226
            ],
            [
              35.329309,
              36.5537707
            ],
            [
              34.397056,
              36.8209827
            ],
            [
              33.4915268,
              36.2630871
            ],
            [
              32.0145149,
              36.4697079
            ]
          ]
        ]
      }
    }
  ]
}