{
  "type": "FeatureCollection",
  "features": [
    {
      "type": "Feature",
      "properties": {},
      "geometry": {
        "type": "Polygon",
        "coordinates": [
          [
            [50.2241355, 37.1799583],
            [49.4480314, 36.9523065],
            [48.9006371, 36.5997177],
            [48.6245907, 36.7711099],
            [48.3081968, 37.1697583],
            [48.3701961, 36.3265225],
            [48.6726655, 36.0441803],
            [48.1178049, 35.7807389],
            [47.7386637, 35.68666],
            [47.9548859, 35.226111],
            [48.5873167, 35.0710364],
            [49.705155, 34.9431139],
            [50.2381262, 34.3481585],
            [50.7231956, 33.6878697],
            [50.9528346, 32.8933484],
            [50.8815118, 32.1829404],
            [52.1591803, 31.9903389],
            [53.2520753, 31.4078103],
            [54.6351354, 30.7841909],
            [55.707904, 29.4087211],
            [56.4896438, 28.3128311],
            [56.7739528, 27.5056911],
            [56.8891947, 27.027655],
            [57.2727805, 25.8633],
            [61.5736585, 25.1023277],
            [66.2535675, 25.6018263],
            [66.7716607, 26.2815177],
            [66.9886635, 27.6058815],
            [68.2168941, 29.6977433],
            [70.4695755, 32.9060672],
            [72.3969228, 37.0484353],
            [73.8311878, 37.1445957],
            [72.8113234, 37.6533369],
            [73.6529085, 39.0991515],
            [74.8973643, 40.6871677],
            [76.2747366, 41.4592974],
            [73.5424967, 42.6106944],
            [73.2592914, 43.3646183],
            [72.6379944, 43.9945887],
            [68.1613308, 46.1369687],
            [67.3075389, 45.9688676],
            [66.7863637, 45.0002895],
            [65.9246724, 43.3733172],
            [60.9775999, 43.1160008],
            [58.996694, 44.6534043],
            [57.2125317, 44.355561],
            [56.6169222, 43.237177],
            [56.3977267, 39.8665345],
            [54.0316698, 38.9143503],
            [53.0035865, 36.763545],
            [51.9282738, 36.5516236],
            [50.6173234, 36.9325392],
            [50.2225032, 37.1736566],
            [50.2241355, 37.1799583]
          ]
        ]
      }
    }
  ]
}